CCSDS_OMM_VERS = 2.0
CREATION_DATE  = 
ORIGINATOR     = 

OBJECT_NAME    = CZ-2C R/B
OBJECT_ID      = 2022-132E
CENTER_NAME    = EARTH
REF_FRAME      = TEME
TIME_SYSTEM    = UTC
MEAN_ELEMENT_THEORY = SGP/SGP4

EPOCH          = 2025-12-20T21:46:48.127008
MEAN_MOTION    = 15.55282433
ECCENTRICITY   = .0021903
INCLINATION    = 97.2939
RA_OF_ASC_NODE = 351.2648
ARG_OF_PERICENTER = 29.4397
MEAN_ANOMALY   = 330.8086

EPHEMERIS_TYPE = 0
CLASSIFICATION_TYPE = U
NORAD_CAT_ID   = 54039
ELEMENT_SET_NO = 999
REV_AT_EPOCH   = 17810
BSTAR          = .35879E-3
MEAN_MOTION_DOT = .24497E-3
MEAN_MOTION_DDOT = 0

CCSDS_OMM_VERS = 2.0
CREATION_DATE  = 
ORIGINATOR     = 

OBJECT_NAME    = GSLV R/B
OBJECT_ID      = 2022-138AN
CENTER_NAME    = EARTH
REF_FRAME      = TEME
TIME_SYSTEM    = UTC
MEAN_ELEMENT_THEORY = SGP/SGP4

EPOCH          = 2025-12-21T00:22:21.690912
MEAN_MOTION    = 14.96167401
ECCENTRICITY   = .00241379
INCLINATION    = 87.3823
RA_OF_ASC_NODE = 192.7022
ARG_OF_PERICENTER = 78.5128
MEAN_ANOMALY   = 281.8812

EPHEMERIS_TYPE = 0
CLASSIFICATION_TYPE = U
NORAD_CAT_ID   = 54149
ELEMENT_SET_NO = 999
REV_AT_EPOCH   = 17216
BSTAR          = .14911692E-3
MEAN_MOTION_DOT = .1717E-4
MEAN_MOTION_DDOT = 0

CCSDS_OMM_VERS = 2.0
CREATION_DATE  = 
ORIGINATOR     = 

OBJECT_NAME    = XRISM
OBJECT_ID      = 2023-137A
CENTER_NAME    = EARTH
REF_FRAME      = TEME
TIME_SYSTEM    = UTC
MEAN_ELEMENT_THEORY = SGP/SGP4

EPOCH          = 2025-12-20T13:35:30.519744
MEAN_MOTION    = 15.10405812
ECCENTRICITY   = .0007689
INCLINATION    = 31.0028
RA_OF_ASC_NODE = 75.0095
ARG_OF_PERICENTER = 323.7715
MEAN_ANOMALY   = 36.2402

EPHEMERIS_TYPE = 0
CLASSIFICATION_TYPE = U
NORAD_CAT_ID   = 57800
ELEMENT_SET_NO = 999
REV_AT_EPOCH   = 12581
BSTAR          = .19838E-3
MEAN_MOTION_DOT = .3437E-4
MEAN_MOTION_DDOT = 0

CCSDS_OMM_VERS = 2.0
CREATION_DATE  = 
ORIGINATOR     = 

OBJECT_NAME    = ACS3
OBJECT_ID      = 2024-077B
CENTER_NAME    = EARTH
REF_FRAME      = TEME
TIME_SYSTEM    = UTC
MEAN_ELEMENT_THEORY = SGP/SGP4

EPOCH          = 2025-12-21T06:35:04.029216
MEAN_MOTION    = 13.85858922
ECCENTRICITY   = .00758221
INCLINATION    = 97.2627
RA_OF_ASC_NODE = 308.9730
ARG_OF_PERICENTER = 317.3654
MEAN_ANOMALY   = 42.1638

EPHEMERIS_TYPE = 0
CLASSIFICATION_TYPE = U
NORAD_CAT_ID   = 59588
ELEMENT_SET_NO = 999
REV_AT_EPOCH   = 8332
BSTAR          = .16598785E-1
MEAN_MOTION_DOT = .19496E-3
MEAN_MOTION_DDOT = 0

CCSDS_OMM_VERS = 2.0
CREATION_DATE  = 
ORIGINATOR     = 

OBJECT_NAME    = SZ-21 MODULE
OBJECT_ID      = 2025-246C
CENTER_NAME    = EARTH
REF_FRAME      = TEME
TIME_SYSTEM    = UTC
MEAN_ELEMENT_THEORY = SGP/SGP4

EPOCH          = 2025-12-21T02:28:16.865472
MEAN_MOTION    = 15.62895195
ECCENTRICITY   = .00053926
INCLINATION    = 41.4772
RA_OF_ASC_NODE = 325.0132
ARG_OF_PERICENTER = 304.7401
MEAN_ANOMALY   = 55.2931

EPHEMERIS_TYPE = 0
CLASSIFICATION_TYPE = U
NORAD_CAT_ID   = 66515
ELEMENT_SET_NO = 999
REV_AT_EPOCH   = 575
BSTAR          = .23274036E-3
MEAN_MOTION_DOT = .21377E-3
MEAN_MOTION_DDOT = 0

